IRIDIUM 150             
1 43257U 18030J   24349.51175102 -.00000032  00000+0 -18512-4 0  9994
2 43257  86.3989 160.2421 0001606  95.8302 264.3077 14.34217403351391
IRIDIUM 143             
1 43258U 18030K   24349.56249152 -.00000018  00000+0 -13397-4 0  9997
2 43258  86.3993 160.2920 0001377  97.9933 262.1419 14.34217319351346
IRIDIUM 161             
1 43478U 18047C   24348.68213886  .00000770  00000+0  22306-3 0  9998
2 43478  86.4476 318.5239 0002156  88.8989 271.2459 14.43276667345736
IRIDIUM 152             
1 43479U 18047D   24349.18636332  .00000419  00000+0  14267-3 0  9997
2 43479  86.3951 318.1725 0002259  84.6790 275.4663 14.34214039343666
IRIDIUM 147             
1 43480U 18047E   24349.19271284  .00000483  00000+0  16547-3 0  9995
2 43480  86.3954 318.1653 0002593  85.6853 274.4639 14.34218254343657
IRIDIUM 110             
1 43481U 18047F   24349.19905502  .00000053  00000+0  11819-4 0  9994
2 43481  86.3957 318.2403 0002534  79.2299 280.9182 14.34217630343644
IRIDIUM 162             
1 43482U 18047G   24349.43847421  .00000772  00000+0  22361-3 0  9998
2 43482  86.4477 318.1052 0002386  79.9626 280.1844 14.43281552345832
IRIDIUM 160             
1 43569U 18061A   24349.84257463  .00000615  00000+0  21258-3 0  9996
2 43569  86.3957 286.3295 0002434  86.4531 273.6944 14.34217375334633
